{
  "type": "FeatureCollection",
  "features": [
    {
      "type": "Feature",
      "properties": {
        "norad_id": 66655,
        "name": "2025-274F",
        "group": "last-30-days",
        "lat": 24.22474993266705,
        "lon": -89.16078528605499,
        "alt_km": 589.7490841645495,
        "timestamp": "2025-12-13T03:42:10.037863+00:00",
        "meta_object_name": "2025-274F",
        "meta_object_id": "2025-274F",
        "meta_epoch": "2025-12-10T14:24:20.623680",
        "meta_mean_motion": 14.91412977,
        "meta_eccentricity": 0.0004698,
        "meta_inclination": 97.7323,
        "meta_ra_of_asc_node": 271.8405,
        "meta_arg_of_pericenter": 22.2473,
        "meta_mean_anomaly": 337.8948,
        "meta_ephemeris_type": 0,
        "meta_classification_type": "U",
        "meta_norad_cat_id": 66655,
        "meta_element_set_no": 999,
        "meta_rev_at_epoch": 208,
        "meta_bstar": 1.9321e-05,
        "meta_mean_motion_dot": 1.38e-06,
        "meta_mean_motion_ddot": 0,
        "tle_line1": "1 66655U 25274F   25344.60023870  .00000138  00000+0  19321-4 0  9993",
        "tle_line2": "2 66655  97.7323 271.8405 0004698  22.2473 337.8948 14.91412977  2082"
      },
      "geometry": {
        "type": "Point",
        "coordinates": [
          -89.16078528605499,
          24.22474993266705
        ]
      }
    },
    {
      "type": "Feature",
      "properties": {
        "norad_id": 66656,
        "name": "2025-274G",
        "group": "last-30-days",
        "lat": 30.558621532000803,
        "lon": -90.25635426568094,
        "alt_km": 595.3688954496156,
        "timestamp": "2025-12-13T03:42:10.037873+00:00",
        "meta_object_name": "2025-274G",
        "meta_object_id": "2025-274G",
        "meta_epoch": "2025-12-12T06:38:38.774688",
        "meta_mean_motion": 14.92269909,
        "meta_eccentricity": 0.00123697,
        "meta_inclination": 97.7384,
        "meta_ra_of_asc_node": 273.4867,
        "meta_arg_of_pericenter": 258.6649,
        "meta_mean_anomaly": 101.3181,
        "meta_ephemeris_type": 0,
        "meta_classification_type": "U",
        "meta_norad_cat_id": 66656,
        "meta_element_set_no": 999,
        "meta_rev_at_epoch": 233,
        "meta_bstar": 0.00052299282,
        "meta_mean_motion_dot": 5.29e-05,
        "meta_mean_motion_ddot": 0,
        "tle_line1": "1 66656U 25274G   25346.27683767  .00005290  00000+0  52299-3 0  9990",
        "tle_line2": "2 66656  97.7384 273.4867 0012369 258.6649 101.3181 14.92269909  2331"
      },
      "geometry": {
        "type": "Point",
        "coordinates": [
          -90.25635426568094,
          30.558621532000803
        ]
      }
    },
    {
      "type": "Feature",
      "properties": {
        "norad_id": 66657,
        "name": "SPIRONE",
        "group": "last-30-days",
        "lat": 41.02873038201366,
        "lon": -92.44261884690147,
        "alt_km": 591.5159382992761,
        "timestamp": "2025-12-13T03:42:10.037889+00:00",
        "meta_object_name": "SPIRONE",
        "meta_object_id": "2025-274H",
        "meta_epoch": "2025-12-12T06:35:57.474528",
        "meta_mean_motion": 14.92448984,
        "meta_eccentricity": 0.00107358,
        "meta_inclination": 97.7381,
        "meta_ra_of_asc_node": 273.4886,
        "meta_arg_of_pericenter": 277.7668,
        "meta_mean_anomaly": 82.2332,
        "meta_ephemeris_type": 0,
        "meta_classification_type": "U",
        "meta_norad_cat_id": 66657,
        "meta_element_set_no": 999,
        "meta_rev_at_epoch": 233,
        "meta_bstar": 0.0005122317,
        "meta_mean_motion_dot": 5.202e-05,
        "meta_mean_motion_ddot": 0,
        "tle_line1": "1 66657U 25274H   25346.27497077  .00005202  00000+0  51223-3 0  9997",
        "tle_line2": "2 66657  97.7381 273.4886 0010735 277.7668  82.2332 14.92448984  2335"
      },
      "geometry": {
        "type": "Point",
        "coordinates": [
          -92.44261884690147,
          41.02873038201366
        ]
      }
    },
    {
      "type": "Feature",
      "properties": {
        "norad_id": 66658,
        "name": "2025-274J",
        "group": "last-30-days",
        "lat": 51.143580329654924,
        "lon": -95.35957553976526,
        "alt_km": 590.5358015414986,
        "timestamp": "2025-12-13T03:42:10.037899+00:00",
        "meta_object_name": "2025-274J",
        "meta_object_id": "2025-274J",
        "meta_epoch": "2025-12-12T06:33:20.285280",
        "meta_mean_motion": 14.92619719,
        "meta_eccentricity": 0.00113189,
        "meta_inclination": 97.7381,
        "meta_ra_of_asc_node": 273.4912,
        "meta_arg_of_pericenter": 280.6697,
        "meta_mean_anomaly": 79.3247,
        "meta_ephemeris_type": 0,
        "meta_classification_type": "U",
        "meta_norad_cat_id": 66658,
        "meta_element_set_no": 999,
        "meta_rev_at_epoch": 233,
        "meta_bstar": 0.00048276309,
        "meta_mean_motion_dot": 4.921e-05,
        "meta_mean_motion_ddot": 0,
        "tle_line1": "1 66658U 25274J   25346.27315145  .00004921  00000+0  48276-3 0  9994",
        "tle_line2": "2 66658  97.7381 273.4912 0011318 280.6697  79.3247 14.92619719  2337"
      },
      "geometry": {
        "type": "Point",
        "coordinates": [
          -95.35957553976526,
          51.143580329654924
        ]
      }
    },
    {
      "type": "Feature",
      "properties": {
        "norad_id": 66659,
        "name": "JACK K",
        "group": "last-30-days",
        "lat": 61.80541202836018,
        "lon": -100.33141465993818,
        "alt_km": 589.9398826084916,
        "timestamp": "2025-12-13T03:42:10.037909+00:00",
        "meta_object_name": "JACK K",
        "meta_object_id": "2025-274K",
        "meta_epoch": "2025-12-12T06:30:32.682240",
        "meta_mean_motion": 14.92804314,
        "meta_eccentricity": 0.0012066,
        "meta_inclination": 97.7382,
        "meta_ra_of_asc_node": 273.4942,
        "meta_arg_of_pericenter": 282.119,
        "meta_mean_anomaly": 77.8678,
        "meta_ephemeris_type": 0,
        "meta_classification_type": "U",
        "meta_norad_cat_id": 66659,
        "meta_element_set_no": 999,
        "meta_rev_at_epoch": 233,
        "meta_bstar": 0.00046069266,
        "meta_mean_motion_dot": 4.716e-05,
        "meta_mean_motion_ddot": 0,
        "tle_line1": "1 66659U 25274K   25346.27121160  .00004716  00000+0  46069-3 0  9997",
        "tle_line2": "2 66659  97.7382 273.4942 0012066 282.1190  77.8678 14.92804314  2336"
      },
      "geometry": {
        "type": "Point",
        "coordinates": [
          -100.33141465993818,
          61.80541202836018
        ]
      }
    },
    {
      "type": "Feature",
      "properties": {
        "norad_id": 66660,
        "name": "K-HERO",
        "group": "last-30-days",
        "lat": 70.16926531273117,
        "lon": -107.78585834182613,
        "alt_km": 589.7257945616038,
        "timestamp": "2025-12-13T03:42:10.037919+00:00",
        "meta_object_name": "K-HERO",
        "meta_object_id": "2025-274L",
        "meta_epoch": "2025-12-12T06:28:17.399712",
        "meta_mean_motion": 14.92954618,
        "meta_eccentricity": 0.00126905,
        "meta_inclination": 97.7386,
        "meta_ra_of_asc_node": 273.4968,
        "meta_arg_of_pericenter": 282.622,
        "meta_mean_anomaly": 77.358,
        "meta_ephemeris_type": 0,
        "meta_classification_type": "U",
        "meta_norad_cat_id": 66660,
        "meta_element_set_no": 999,
        "meta_rev_at_epoch": 233,
        "meta_bstar": 0.00043164249,
        "meta_mean_motion_dot": 4.432e-05,
        "meta_mean_motion_ddot": 0,
        "tle_line1": "1 66660U 25274L   25346.26964583  .00004432  00000+0  43164-3 0  9990",
        "tle_line2": "2 66660  97.7386 273.4968 0012690 282.6220  77.3580 14.92954618  2332"
      },
      "geometry": {
        "type": "Point",
        "coordinates": [
          -107.78585834182613,
          70.16926531273117
        ]
      }
    },
    {
      "type": "Feature",
      "properties": {
        "norad_id": 66661,
        "name": "SNUGLITE-III",
        "group": "last-30-days",
        "lat": 77.76192613857339,
        "lon": -124.45237127475322,
        "alt_km": 589.7430307800605,
        "timestamp": "2025-12-13T03:42:10.037929+00:00",
        "meta_object_name": "SNUGLITE-III",
        "meta_object_id": "2025-274M",
        "meta_epoch": "2025-12-12T06:26:02.758272",
        "meta_mean_motion": 14.93093703,
        "meta_eccentricity": 0.001339,
        "meta_inclination": 97.7383,
        "meta_ra_of_asc_node": 273.4984,
        "meta_arg_of_pericenter": 283.716,
        "meta_mean_anomaly": 76.2569,
        "meta_ephemeris_type": 0,
        "meta_classification_type": "U",
        "meta_norad_cat_id": 66661,
        "meta_element_set_no": 999,
        "meta_rev_at_epoch": 233,
        "meta_bstar": 0.00039614497,
        "meta_mean_motion_dot": 4.078e-05,
        "meta_mean_motion_ddot": 0,
        "tle_line1": "1 66661U 25274M   25346.26808748  .00004078  00000+0  39614-3 0  9992",
        "tle_line2": "2 66661  97.7383 273.4984 0013390 283.7160  76.2569 14.93093703  2336"
      },
      "geometry": {
        "type": "Point",
        "coordinates": [
          -124.45237127475322,
          77.76192613857339
        ]
      }
    }
  ]
}